OBJECT_NAME,OBJECT_ID,EPOCH,MEAN_MOTION,ECCENTRICITY,INCLINATION,RA_OF_ASC_NODE,ARG_OF_PERICENTER,MEAN_ANOMALY,EPHEMERIS_TYPE,CLASSIFICATION_TYPE,NORAD_CAT_ID,ELEMENT_SET_NO,REV_AT_EPOCH,BSTAR,MEAN_MOTION_DOT,MEAN_MOTION_DDOT
LEMUR-2-ROUNDTRIPPER,2025-009DG,2026-07-15T04:04:03.412416,15.04231838,.00044581,97.7253,278.8143,63.8753,296.2931,0,U,62711,999,8183,.33631529E-3,.4615E-4,0
LEMUR-2-MYNAMEISJEFF,2025-009DH,2026-07-15T05:37:40.096704,15.04223423,.00040629,97.7302,279.2772,97.3054,262.8634,0,U,62712,999,8184,.33391474E-3,.458E-4,0
LEMUR-2-LEIA-PHILIP,2025-052AN,2026-07-15T06:29:12.941952,14.97391480,.00050958,97.6805,87.7451,119.1718,241.0014,0,U,63246,999,7287,.17093362E-4,.141E-5,0
LEMUR-2-LIA-MARTIN,2025-052AQ,2026-07-15T06:21:19.751616,14.98030415,.00052999,97.6869,88.2585,89.7289,270.4540,0,U,63248,999,7288,.1764308E-3,.2027E-4,0
LEMUR-2-DELOITTE-1,2025-052BB,2026-07-15T13:54:12.637152,14.97784138,.0002572,97.6881,88.8983,64.8549,295.2940,0,U,63259,999,7294,.21286994E-3,.2441E-4,0
LEMUR-2-EMERSONROSE,2025-052BD,2026-07-15T12:37:58.203840,14.99293057,.00027092,97.6885,89.4601,60.0626,300.0865,0,U,63261,999,7298,.22890076E-3,.2736E-4,0
LEMUR-2-MARACHE-FRAN,2025-052BE,2026-07-15T05:10:08.864832,15.00315354,.00051768,97.6837,89.5210,252.2220,107.8439,0,U,63262,999,7296,.13855465E-3,.1678E-4,0
LEMUR-2-THEFALCONER,2025-052BG,2026-07-15T06:37:04.013760,14.97563100,.00002945,97.6830,88.1900,296.3949,63.7243,0,U,63264,999,7289,.96507585E-4,.1069E-4,0
LEMUR-2-UNTITLED-SC,2025-061A,2026-07-15T10:48:30.307392,15.13647125,.00192598,97.5653,171.6119,162.1875,198.0035,0,U,63351,999,7186,.8554346E-4,.1477E-4,0
LEMUR-2-ESPERANZA,2025-061B,2026-07-15T10:12:57.829248,15.13753018,.0018878,97.5660,171.6875,161.4903,198.7019,0,U,63352,999,7186,.1048641E-3,.1831E-4,0
LEMUR-2-KREMPEL-BRO2,2025-061C,2026-07-15T12:15:20.950560,15.14180171,.00200103,97.5706,172.3413,154.2043,206.0190,0,U,63353,999,7189,.9563066E-4,.1685E-4,0
LEMUR-2-THERMORAPTOR,2025-061D,2026-07-15T08:37:01.021440,15.14262119,.00197465,97.5711,172.2717,153.5346,206.6899,0,U,63354,999,7187,.11147184E-3,.198E-4,0
LEMUR-2-NEUROSPICY,2025-061E,2026-07-15T11:03:23.657472,15.14381818,.00175103,97.5639,171.9772,156.0796,204.1253,0,U,63355,999,7189,.10187421E-3,.1808E-4,0
LEMUR-2-TILLINFINITY,2025-061F,2026-07-15T10:03:22.552128,15.14965307,.00190995,97.5625,172.2461,145.1079,215.1409,0,U,63356,999,7191,.11795529E-3,.2141E-4,0
LEMUR-2-KREMPEL-BRO1,2025-061G,2026-07-15T09:30:22.063680,15.14772578,.00197105,97.5625,172.1313,146.5937,213.6543,0,U,63357,999,7190,.10241389E-3,.1841E-4,0
LEMUR-2-LANGER2SPACE,2025-061H,2026-07-15T10:16:41.362464,15.14465864,.00174232,97.5632,171.9659,154.4155,205.7942,0,U,63358,999,7189,.10761418E-3,.1918E-4,0
LEMUR-2-BALTO,2025-052BH,2026-07-15T12:47:48.671808,15.00366255,.00051076,97.6928,89.8234,326.1448,33.9449,0,U,63395,999,7301,.21448911E-3,.2634E-4,0
LEMUR-2-KRISH,2025-135AK,2026-07-15T13:28:40.910304,14.96450444,.00012959,97.7775,311.2495,95.8991,264.2378,0,U,64561,999,5816,.17403323E-3,.1916E-4,0
LEMUR-2-HUBBLE-4,2025-135AP,2026-07-15T13:02:05.974080,14.93686751,.00027022,97.7720,310.1208,161.1599,198.9721,0,U,64565,999,5810,.87612452E-4,.87E-5,0
LEMUR-2-SEJONG-2,2025-135BL,2026-07-15T12:22:33.170016,14.96912919,.00039846,97.7708,311.3491,217.2614,142.8331,0,U,64586,999,5818,.18922898E-3,.2114E-4,0
LEMUR-2-HUBBLE-5,2025-135BT,2026-07-15T13:14:38.686560,14.94214435,.00043365,97.7741,310.7988,233.7942,126.2877,0,U,64840,999,5814,.67185876E-4,.663E-5,0
LEMUR-2-KARENDARRELL,2025-135BU,2026-07-15T06:18:55.633824,15.00500029,.00124499,97.7718,312.4344,104.5453,255.7152,0,U,64841,999,5822,.32782687E-3,.4076E-4,0
LEMUR-2-LUCILLE-ROSE,2025-135BV,2026-07-15T13:40:50.468448,15.00491915,.00149559,97.7711,312.7763,187.7689,172.3306,0,U,65403,999,5289,.2920952E-3,.3626E-4,0
LEMUR-2-AFFIE-WAUWIE,2025-248C,2026-07-15T08:51:52.657344,15.28256430,.00087669,45.3887,322.1687,251.4181,108.5756,0,U,66295,999,3890,.46577019E-3,.12792E-3,0
OTTER SDM,2025-276N,2026-07-15T03:54:58.180896,15.20056680,.00042957,97.4206,269.1787,254.0411,106.0351,0,U,66678,999,3466,.16803421E-3,.3557E-4,0
LEMUR-2-STAS-GORBUK,2025-276W,2026-07-15T04:25:49.159200,15.19658337,.00036139,97.4240,269.2517,248.2139,111.8711,0,U,66686,999,3466,.13639192E-3,.2841E-4,0
LEMUR-2-TEODOR,2025-276DG,2026-07-15T04:52:52.540032,15.21337341,.00022162,97.4145,269.5420,87.9378,272.2111,0,U,66768,999,3470,.14173806E-3,.3105E-4,0
LEMUR-2-LAILA,2025-276DQ,2026-07-15T04:09:23.257440,15.21563113,.00029245,97.4169,269.6508,94.5398,265.6172,0,U,66776,999,3470,.13678203E-3,.3014E-4,0
LEMUR-2-CELIJO-SB-PK,2025-276DW,2026-07-15T04:26:13.736544,15.00282855,.00070307,97.5197,266.0383,64.1114,296.0834,0,U,66781,999,2682,.21422816E-3,.2627E-4,0
